GLOBALSTAR M063         
1 26081U 00008A   26065.21701096 -.00000088  00000+0 -73028-4 0  9991
2 26081  51.9947 141.4717 0005077 100.0142 275.0607 11.86181232188676
GLOBALSTAR M062         
1 26082U 00008B   26065.25559026 -.00000029  00000+0  49800-3 0  9994
2 26082  51.9861  45.1036 0007246 314.6274 148.3568 12.43481049529226
GLOBALSTAR M060         
1 26083U 00008C   26065.23539424 -.00000105  00000+0 -14038-3 0  9994
2 26083  52.0038  42.2474 0003051 300.4558  72.8122 12.17675719184298
GLOBALSTAR M064         
1 26084U 00008D   26065.19681996 -.00000077  00000+0  83616-4 0  9998
2 26084  52.0006 237.2662 0001610 164.2933 195.7950 11.88542548198256
GLOBALSTAR M065         
1 31571U 07020A   26065.21092507 -.00000117  00000+0 -74981-4 0  9994
2 31571  51.9890 148.7386 0010278 166.0642 218.4225 12.62020892866490
GLOBALSTAR M069         
1 31573U 07020C   26064.52248713 -.00000110  00000+0 -15860-3 0  9994
2 31573  52.0024 185.5371 0000981 290.6192 150.0236 12.23468726866111
GLOBALSTAR M072         
1 31574U 07020D   26065.23434476 -.00000089  00000+0 -66518-4 0  9999
2 31574  51.9964  14.3333 0001453  99.5440  41.7137 11.91655845862708
GLOBALSTAR M071         
1 31576U 07020F   26064.68083740 -.00000159  00000+0 -66756-3 0  9994
2 31576  52.0046 218.0782 0000216 155.0070 217.8437 12.18266469526815
GLOBALSTAR M067         
1 32263U 07048A   26065.17993896 -.00000119  00000+0 -16031-3 0  9992
2 32263  51.9760 349.3090 0001026 151.1132 352.4589 12.40684784842001
GLOBALSTAR M070         
1 32264U 07048B   26065.21153775 -.00000100  00000+0  21780-4 0  9999
2 32264  51.9762  50.2585 0000466  57.9563 315.6350 12.62331293846761
GLOBALSTAR M066         
1 32265U 07048C   26065.25378762 -.00000087  00000+0  60215-4 0  9999
2 32265  51.9618 353.4053 0004489 181.9552 343.8945 12.30386187847553
GLOBALSTAR M068         
1 32266U 07048D   26064.83501736 -.00000075  00000+0  15828-3 0  9998
2 32266  51.9867 224.6533 0001146  43.3740 104.0764 12.62842137850613
GLOBALSTAR M079         
1 37188U 10054A   26065.28635078 -.00000114  00000+0 -54486-4 0  9993
2 37188  52.0041  61.9131 0000564 112.3721 355.8127 12.62263827709550
GLOBALSTAR M074         
1 37189U 10054B   26065.29212295 -.00000114  00000+0 -56440-4 0  9999
2 37189  52.0017  61.1780 0000240 116.1370 257.5791 12.62266332710167
GLOBALSTAR M076         
1 37190U 10054C   26065.17769584 -.00000112  00000+0 -45587-4 0  9994
2 37190  52.0036  61.7208 0000449 139.6554 313.8911 12.62270437709862
GLOBALSTAR M077         
1 37191U 10054D   26065.23934303 -.00000082  00000+0 -72097-4 0  9997
2 37191  51.9965  80.7015 0000625 172.8958 269.6147 11.68144018709119
