[{"OBJECT_NAME":"GLOBALSTAR M063","OBJECT_ID":"2000-008A","EPOCH":"2026-03-06T05:12:29.746944","MEAN_MOTION":11.86181232,"ECCENTRICITY":0.00050775,"INCLINATION":51.9947,"RA_OF_ASC_NODE":141.4717,"ARG_OF_PERICENTER":100.0142,"MEAN_ANOMALY":275.0607,"EPHEMERIS_TYPE":0,"CLASSIFICATION_TYPE":"U","NORAD_CAT_ID":26081,"ELEMENT_SET_NO":999,"REV_AT_EPOCH":18867,"BSTAR":-7.3028469e-5,"MEAN_MOTION_DOT":-8.8e-7,"MEAN_MOTION_DDOT":0},{"OBJECT_NAME":"GLOBALSTAR M062","OBJECT_ID":"2000-008B","EPOCH":"2026-03-06T06:08:02.998464","MEAN_MOTION":12.43481049,"ECCENTRICITY":0.00072466,"INCLINATION":51.9861,"RA_OF_ASC_NODE":45.1036,"ARG_OF_PERICENTER":314.6274,"MEAN_ANOMALY":148.3568,"EPHEMERIS_TYPE":0,"CLASSIFICATION_TYPE":"U","NORAD_CAT_ID":26082,"ELEMENT_SET_NO":999,"REV_AT_EPOCH":52922,"BSTAR":0.00049800206,"MEAN_MOTION_DOT":-2.9e-7,"MEAN_MOTION_DDOT":0},{"OBJECT_NAME":"GLOBALSTAR M060","OBJECT_ID":"2000-008C","EPOCH":"2026-03-06T05:38:58.062336","MEAN_MOTION":12.17675719,"ECCENTRICITY":0.00030513,"INCLINATION":52.0038,"RA_OF_ASC_NODE":42.2474,"ARG_OF_PERICENTER":300.4558,"MEAN_ANOMALY":72.8122,"EPHEMERIS_TYPE":0,"CLASSIFICATION_TYPE":"U","NORAD_CAT_ID":26083,"ELEMENT_SET_NO":999,"REV_AT_EPOCH":18429,"BSTAR":-0.00014038491,"MEAN_MOTION_DOT":-1.05e-6,"MEAN_MOTION_DDOT":0},{"OBJECT_NAME":"GLOBALSTAR M064","OBJECT_ID":"2000-008D","EPOCH":"2026-03-06T04:43:25.244544","MEAN_MOTION":11.88542548,"ECCENTRICITY":0.00016107,"INCLINATION":52.0006,"RA_OF_ASC_NODE":237.2662,"ARG_OF_PERICENTER":164.2933,"MEAN_ANOMALY":195.795,"EPHEMERIS_TYPE":0,"CLASSIFICATION_TYPE":"U","NORAD_CAT_ID":26084,"ELEMENT_SET_NO":999,"REV_AT_EPOCH":19825,"BSTAR":8.3615782e-5,"MEAN_MOTION_DOT":-7.7e-7,"MEAN_MOTION_DDOT":0},{"OBJECT_NAME":"GLOBALSTAR M065","OBJECT_ID":"2007-020A","EPOCH":"2026-03-06T05:03:43.926048","MEAN_MOTION":12.62020892,"ECCENTRICITY":0.00102784,"INCLINATION":51.989,"RA_OF_ASC_NODE":148.7386,"ARG_OF_PERICENTER":166.0642,"MEAN_ANOMALY":218.4225,"EPHEMERIS_TYPE":0,"CLASSIFICATION_TYPE":"U","NORAD_CAT_ID":31571,"ELEMENT_SET_NO":999,"REV_AT_EPOCH":86649,"BSTAR":-7.4980981e-5,"MEAN_MOTION_DOT":-1.17e-6,"MEAN_MOTION_DDOT":0},{"OBJECT_NAME":"GLOBALSTAR M069","OBJECT_ID":"2007-020C","EPOCH":"2026-03-05T12:32:22.888032","MEAN_MOTION":12.23468726,"ECCENTRICITY":9.81e-5,"INCLINATION":52.0024,"RA_OF_ASC_NODE":185.5371,"ARG_OF_PERICENTER":290.6192,"MEAN_ANOMALY":150.0236,"EPHEMERIS_TYPE":0,"CLASSIFICATION_TYPE":"U","NORAD_CAT_ID":31573,"ELEMENT_SET_NO":999,"REV_AT_EPOCH":86611,"BSTAR":-0.0001586,"MEAN_MOTION_DOT":-1.1e-6,"MEAN_MOTION_DDOT":0},{"OBJECT_NAME":"GLOBALSTAR M072","OBJECT_ID":"2007-020D","EPOCH":"2026-03-06T05:37:27.387264","MEAN_MOTION":11.91655845,"ECCENTRICITY":0.0001453,"INCLINATION":51.9964,"RA_OF_ASC_NODE":14.3333,"ARG_OF_PERICENTER":99.544,"MEAN_ANOMALY":41.7137,"EPHEMERIS_TYPE":0,"CLASSIFICATION_TYPE":"U","NORAD_CAT_ID":31574,"ELEMENT_SET_NO":999,"REV_AT_EPOCH":86270,"BSTAR":-6.6517992e-5,"MEAN_MOTION_DOT":-8.9e-7,"MEAN_MOTION_DDOT":0},{"OBJECT_NAME":"GLOBALSTAR M071","OBJECT_ID":"2007-020F","EPOCH":"2026-03-05T16:20:24.351360","MEAN_MOTION":12.18266469,"ECCENTRICITY":2.16e-5,"INCLINATION":52.0046,"RA_OF_ASC_NODE":218.0782,"ARG_OF_PERICENTER":155.007,"MEAN_ANOMALY":217.8437,"EPHEMERIS_TYPE":0,"CLASSIFICATION_TYPE":"U","NORAD_CAT_ID":31576,"ELEMENT_SET_NO":999,"REV_AT_EPOCH":52681,"BSTAR":-0.00066756062,"MEAN_MOTION_DOT":-1.59e-6,"MEAN_MOTION_DDOT":0},{"OBJECT_NAME":"GLOBALSTAR M067","OBJECT_ID":"2007-048A","EPOCH":"2026-03-06T04:19:06.726144","MEAN_MOTION":12.40684784,"ECCENTRICITY":0.00010265,"INCLINATION":51.976,"RA_OF_ASC_NODE":349.309,"ARG_OF_PERICENTER":151.1132,"MEAN_ANOMALY":352.4589,"EPHEMERIS_TYPE":0,"CLASSIFICATION_TYPE":"U","NORAD_CAT_ID":32263,"ELEMENT_SET_NO":999,"REV_AT_EPOCH":84200,"BSTAR":-0.00016030905,"MEAN_MOTION_DOT":-1.19e-6,"MEAN_MOTION_DDOT":0},{"OBJECT_NAME":"GLOBALSTAR M070","OBJECT_ID":"2007-048B","EPOCH":"2026-03-06T05:04:36.861600","MEAN_MOTION":12.62331293,"ECCENTRICITY":4.664e-5,"INCLINATION":51.9762,"RA_OF_ASC_NODE":50.2585,"ARG_OF_PERICENTER":57.9563,"MEAN_ANOMALY":315.635,"EPHEMERIS_TYPE":0,"CLASSIFICATION_TYPE":"U","NORAD_CAT_ID":32264,"ELEMENT_SET_NO":999,"REV_AT_EPOCH":84676,"BSTAR":2.1779677e-5,"MEAN_MOTION_DOT":-1.0e-6,"MEAN_MOTION_DDOT":0},{"OBJECT_NAME":"GLOBALSTAR M066","OBJECT_ID":"2007-048C","EPOCH":"2026-03-06T06:05:27.250368","MEAN_MOTION":12.30386187,"ECCENTRICITY":0.0004489,"INCLINATION":51.9618,"RA_OF_ASC_NODE":353.4053,"ARG_OF_PERICENTER":181.9552,"MEAN_ANOMALY":343.8945,"EPHEMERIS_TYPE":0,"CLASSIFICATION_TYPE":"U","NORAD_CAT_ID":32265,"ELEMENT_SET_NO":999,"REV_AT_EPOCH":84755,"BSTAR":6.0214607e-5,"MEAN_MOTION_DOT":-8.7e-7,"MEAN_MOTION_DDOT":0},{"OBJECT_NAME":"GLOBALSTAR M068","OBJECT_ID":"2007-048D","EPOCH":"2026-03-05T20:02:25.499904","MEAN_MOTION":12.62842137,"ECCENTRICITY":0.00011462,"INCLINATION":51.9867,"RA_OF_ASC_NODE":224.6533,"ARG_OF_PERICENTER":43.374,"MEAN_ANOMALY":104.0764,"EPHEMERIS_TYPE":0,"CLASSIFICATION_TYPE":"U","NORAD_CAT_ID":32266,"ELEMENT_SET_NO":999,"REV_AT_EPOCH":85061,"BSTAR":0.00015828394,"MEAN_MOTION_DOT":-7.5e-7,"MEAN_MOTION_DDOT":0},{"OBJECT_NAME":"GLOBALSTAR M079","OBJECT_ID":"2010-054A","EPOCH":"2026-03-06T06:52:20.707392","MEAN_MOTION":12.62263827,"ECCENTRICITY":5.646e-5,"INCLINATION":52.0041,"RA_OF_ASC_NODE":61.9131,"ARG_OF_PERICENTER":112.3721,"MEAN_ANOMALY":355.8127,"EPHEMERIS_TYPE":0,"CLASSIFICATION_TYPE":"U","NORAD_CAT_ID":37188,"ELEMENT_SET_NO":999,"REV_AT_EPOCH":70955,"BSTAR":-5.4485692e-5,"MEAN_MOTION_DOT":-1.14e-6,"MEAN_MOTION_DDOT":0},{"OBJECT_NAME":"GLOBALSTAR M074","OBJECT_ID":"2010-054B","EPOCH":"2026-03-06T07:00:39.422880","MEAN_MOTION":12.62266332,"ECCENTRICITY":2.408e-5,"INCLINATION":52.0017,"RA_OF_ASC_NODE":61.178,"ARG_OF_PERICENTER":116.137,"MEAN_ANOMALY":257.5791,"EPHEMERIS_TYPE":0,"CLASSIFICATION_TYPE":"U","NORAD_CAT_ID":37189,"ELEMENT_SET_NO":999,"REV_AT_EPOCH":71016,"BSTAR":-5.6439733e-5,"MEAN_MOTION_DOT":-1.14e-6,"MEAN_MOTION_DDOT":0},{"OBJECT_NAME":"GLOBALSTAR M076","OBJECT_ID":"2010-054C","EPOCH":"2026-03-06T04:15:52.920576","MEAN_MOTION":12.62270437,"ECCENTRICITY":4.498e-5,"INCLINATION":52.0036,"RA_OF_ASC_NODE":61.7208,"ARG_OF_PERICENTER":139.6554,"MEAN_ANOMALY":313.8911,"EPHEMERIS_TYPE":0,"CLASSIFICATION_TYPE":"U","NORAD_CAT_ID":37190,"ELEMENT_SET_NO":999,"REV_AT_EPOCH":70986,"BSTAR":-4.5586626e-5,"MEAN_MOTION_DOT":-1.12e-6,"MEAN_MOTION_DDOT":0},{"OBJECT_NAME":"GLOBALSTAR M077","OBJECT_ID":"2010-054D","EPOCH":"2026-03-06T05:44:39.237792","MEAN_MOTION":11.68144018,"ECCENTRICITY":6.251e-5,"INCLINATION":51.9965,"RA_OF_ASC_NODE":80.7015,"ARG_OF_PERICENTER":172.8958,"MEAN_ANOMALY":269.6147,"EPHEMERIS_TYPE":0,"CLASSIFICATION_TYPE":"U","NORAD_CAT_ID":37191,"ELEMENT_SET_NO":999,"REV_AT_EPOCH":70911,"BSTAR":-7.2096776e-5,"MEAN_MOTION_DOT":-8.2e-7,"MEAN_MOTION_DDOT":0}]
